STARLINK-36298          
1 68517U 26068K   26097.55998056 -.00052006  11852-4 -15009-3 0  9994
2 68517  53.1609   4.6559 0002417 216.2287 143.8577 15.91006978  1231
