{
  "norad_id": 68517,
  "name": "STARLINK-36298",
  "history": [
    {
      "epoch": "2026-04-07T13:26:22.320384Z",
      "apogee_km": 301.07776356368686,
      "perigee_km": 297.84981134303234,
      "latitude_deg": 2.4766293878277836e-05,
      "longitude_deg": -32.772212849447094,
      "height_km": 301.69064691443384,
      "semi_major_axis_km": 6677.60078745336,
      "eccentricity": 0.0002417,
      "inclination_deg": 53.1609,
      "raan_deg": 4.6559,
      "arg_perigee_deg": 216.2287,
      "mean_anomaly_deg": 143.8577,
      "mean_motion_rev_day": 15.91006978
    }
  ]
}